IRIDIUM 126             
1 42809U 17039G   24035.90276460  .00000165  00000+0  51722-4 0  9993
2 42809  86.4004 354.4114 0002123  76.4720 283.6712 14.34218627346227
IRIDIUM 124             
1 42810U 17039H   24035.74478690  .00000538  00000+0  15392-3 0  9992
2 42810  86.4488 291.2330 0001983  92.2018 267.9410 14.43275615350575
IRIDIUM 128             
1 42811U 17039J   24035.47488073  .00000341  00000+0  11467-3 0  9990
2 42811  86.3964  26.0962 0002050  87.4789 272.6642 14.34222028346188
IRIDIUM 121             
1 42812U 17039K   24035.92179390  .00000107  00000+0  31040-4 0  9990
2 42812  86.4006 354.4255 0002213  83.9880 276.1568 14.34217618346099
IRIDIUM 133             
1 42955U 17061A   24035.78567496  .00000305  00000+0  10190-3 0  9997
2 42955  86.3966  26.0629 0002199  85.5093 274.6354 14.34220536331021
IRIDIUM 100             
1 42956U 17061B   24035.91887067  .00000294  00000+0  97851-4 0  9999
2 42956  86.3964  25.9457 0002091  87.8480 272.2955 14.34216587331047
IRIDIUM 122             
1 42957U 17061C   24035.46854216  .00000335  00000+0  11271-3 0  9997
2 42957  86.3965  26.1323 0002033  86.6687 273.4741 14.34220922330982
IRIDIUM 129             
1 42958U 17061D   24035.70321978  .00000287  00000+0  95328-4 0  9991
2 42958  86.3965  26.0922 0002104  87.3399 272.8037 14.34220441331038
